      2.10          N: GNSS NAV DATA                        RINEX VERSION / TYPE
fic2rin                                 01/20/2021 00:17:21 PGM / RUN BY / DATE
                                                            END OF HEADER
 7 21  1 19  8  0  0.0 2.716435119510e-05 1.421085471520e-11 0.000000000000e+00
    4.100000000000e+01 4.134375000000e+01 4.649479383765e-09-3.100534979944e+00
    2.019107341766e-06 1.434991788119e-02 8.197501301765e-06 5.153609865189e+03
    2.016000000000e+05 5.587935447693e-09 1.959224144133e+00-1.993030309677e-07
    9.517642034279e-01 2.155937500000e+02-2.355894520303e+00-7.871399303947e-09
    2.096515899731e-10 1.000000000000e+00 2.141000000000e+03 0.000000000000e+00
    3.400000000000e+00 0.000000000000e+00-1.117587089539e-08 4.100000000000e+01
    1.944000000000e+05 4.000000000000e+00
30 21  1 19  8  0  0.0-3.712680190802e-04-6.025402399246e-12 0.000000000000e+00
    1.800000000000e+01 4.378125000000e+01 5.088783396826e-09-3.129561407572e+00
    2.261251211166e-06 4.785909783095e-03 7.884576916695e-06 5.153756759644e+03
    2.016000000000e+05-3.539025783539e-08 1.978331734098e+00-5.774199962616e-08
    9.370152213479e-01 2.150625000000e+02-2.849832022783e+00-8.244271978448e-09
    1.753644474903e-10 1.000000000000e+00 2.141000000000e+03 0.000000000000e+00
    2.400000000000e+00 0.000000000000e+00 3.725290298462e-09 1.800000000000e+01
    1.944000000000e+05 4.000000000000e+00
15 21  1 19  8  0  0.0-1.753172837198e-04 2.614797267597e-12 0.000000000000e+00
    4.300000000000e+01-3.203125000000e+01 5.184144511856e-09-1.278605146031e+00
   -1.618638634682e-06 1.310708629899e-02 9.275972843170e-06 5.153805238724e+03
    2.016000000000e+05 2.831220626831e-07 7.902255238821e-01 2.179294824600e-07
    9.287422718549e-01 1.814687500000e+02 9.677270125259e-01-8.306774581933e-09
   -1.521491947675e-10 1.000000000000e+00 2.141000000000e+03 0.000000000000e+00
    2.400000000000e+00 0.000000000000e+00-1.071020960808e-08 4.300000000000e+01
    1.944000000000e+05 4.000000000000e+00
32 21  1 19  8  0  0.0 1.504598185420e-05 1.932676241267e-12 0.000000000000e+00
    1.000000000000e+01-2.728125000000e+01 4.564833000760e-09 4.781380120931e-01
   -1.363456249237e-06 4.456111462787e-03 1.015514135361e-05 5.153631750107e+03
    2.016000000000e+05 1.862645149231e-08 8.953794800122e-01 6.891787052155e-08
    9.570799137629e-01 1.817187500000e+02-2.456744043331e+00-8.093551414617e-09
   -1.907222300607e-10 1.000000000000e+00 2.141000000000e+03 0.000000000000e+00
    2.400000000000e+00 0.000000000000e+00 4.656612873077e-10 1.000000000000e+01
    1.944000000000e+05 4.000000000000e+00
22 21  1 19  8  0  0.0-6.955605931580e-04 6.821210263297e-12 0.000000000000e+00
    2.500000000000e+01-3.515625000000e+01 5.469156383745e-09-1.286322514347e+00
   -1.816079020500e-06 6.881494424306e-03 5.161389708519e-06 5.153623010635e+03
    2.016000000000e+05-1.825392246246e-07-2.388542686905e-01-5.215406417847e-08
    9.336878112508e-01 2.646875000000e+02-1.051487197611e+00-8.729292181486e-09
    1.428630936784e-12 1.000000000000e+00 2.141000000000e+03 0.000000000000e+00
    2.400000000000e+00 0.000000000000e+00-1.816079020500e-08 2.500000000000e+01
    1.944000000000e+05 4.000000000000e+00
26 21  1 19  8  0  0.0 3.213109448552e-05 5.684341886081e-12 0.000000000000e+00
    1.500000000000e+01 1.115625000000e+01 5.092712131902e-09 1.570698924246e+00
    6.426125764847e-07 5.634528934024e-03 5.627050995827e-06 5.153739362717e+03
    2.016000000000e+05-4.284083843231e-08 2.956779355557e+00 5.401670932770e-08
    9.437565102411e-01 2.620937500000e+02 2.534012217837e-01-8.462495354042e-09
   -2.132231673151e-10 1.000000000000e+00 2.141000000000e+03 0.000000000000e+00
    2.400000000000e+00 0.000000000000e+00 6.984919309616e-09 1.500000000000e+01
    1.944000000000e+05 4.000000000000e+00
29 21  1 19  8  0  0.0-2.786065451801e-04-7.275957614183e-12 0.000000000000e+00
    7.000000000000e+01 1.493750000000e+01 3.894805091408e-09-2.050092112737e-01
    5.811452865601e-07 1.452509197406e-03 8.925795555115e-06 5.153697946548e+03
    2.016000000000e+05 2.421438694000e-08-2.167623606612e+00 2.980232238770e-08
    9.847456593408e-01 2.180312500000e+02 2.195799309341e+00-7.797110495235e-09
   -1.678641350722e-11 1.000000000000e+00 2.141000000000e+03 0.000000000000e+00
    2.400000000000e+00 0.000000000000e+00-1.024454832077e-08 7.000000000000e+01
    1.944000000000e+05 4.000000000000e+00
31 21  1 19  8  0  0.0-9.480025619268e-05-2.273736754432e-12 0.000000000000e+00
    5.800000000000e+01 5.228125000000e+01 4.681623579842e-09 2.726917064984e+00
    2.605840563774e-06 9.972679545172e-03 8.406117558479e-06 5.153725063324e+03
    2.016000000000e+05-8.195638656616e-08 1.975757318657e+00-2.235174179077e-08
    9.561238646139e-01 2.167812500000e+02 2.364027456833e-01-8.042835016362e-09
    1.667926618696e-10 1.000000000000e+00 2.141000000000e+03 0.000000000000e+00
    2.400000000000e+00 0.000000000000e+00-1.303851604462e-08 5.800000000000e+01
    1.944000000000e+05 4.000000000000e+00
19 21  1 19  8  0  0.0-4.995940253139e-05 5.002220859751e-12 0.000000000000e+00
    3.500000000000e+01 3.343750000000e+00 3.969808215589e-09 2.205256678272e+00
    1.061707735062e-07 8.986033732072e-03 8.819624781609e-06 5.153617700577e+03
    2.016000000000e+05 1.043081283569e-07-2.134518879371e+00-3.166496753693e-08
    9.813503420494e-01 2.197500000000e+02 1.771530789037e+00-7.661033398506e-09
   -5.964534161075e-11 1.000000000000e+00 2.141000000000e+03 0.000000000000e+00
    2.400000000000e+00 0.000000000000e+00-1.536682248116e-08 3.500000000000e+01
    1.944000000000e+05 4.000000000000e+00
13 21  1 19  8  0  0.0 8.752848953009e-05 4.206412995700e-12 0.000000000000e+00
    3.800000000000e+01-1.818750000000e+01 4.261606084428e-09-9.306267663517e-01
   -1.028180122375e-06 4.918081569485e-03 9.832903742790e-06 5.153687229156e+03
    2.016000000000e+05 1.117587089539e-08 1.032529474826e+00 1.303851604462e-07
    9.678718911549e-01 1.930625000000e+02 1.040382432241e+00-7.914615389785e-09
   -9.643258823294e-11 1.000000000000e+00 2.141000000000e+03 0.000000000000e+00
    2.400000000000e+00 0.000000000000e+00-1.164153218269e-08 3.800000000000e+01
    1.944000000000e+05 4.000000000000e+00
20 21  1 19  8  0  0.0 5.250978283584e-04-1.136868377216e-13 0.000000000000e+00
    4.000000000000e+01-4.034375000000e+01 5.303078037343e-09-3.053557012883e+00
   -2.007931470871e-06 5.874501192011e-03 5.021691322327e-06 5.153668426514e+03
    2.016000000000e+05-1.043081283569e-07-2.855146742722e-01 7.450580596924e-09
    9.369834087314e-01 2.711250000000e+02 2.832221754341e+00-8.479996083018e-09
   -1.535778257043e-11 1.000000000000e+00 2.141000000000e+03 0.000000000000e+00
    2.400000000000e+00 0.000000000000e+00-8.381903171539e-09 4.000000000000e+01
    1.944000000000e+05 4.000000000000e+00
17 21  1 19  8  0  0.0 3.821142017841e-04 4.774847184308e-12 0.000000000000e+00
    3.800000000000e+01 1.875000000000e-01 4.060169122341e-09-3.681273888405e-01
   -1.136213541031e-07 1.359463098925e-02 9.071081876755e-06 5.153534090042e+03
    2.016000000000e+05-2.048909664154e-07-2.179825484470e+00 8.195638656616e-08
    9.829626562487e-01 2.223125000000e+02-1.586433838503e+00-8.042120700893e-09
    2.678683006471e-11 1.000000000000e+00 2.141000000000e+03 0.000000000000e+00
    2.400000000000e+00 0.000000000000e+00-1.117587089539e-08 3.800000000000e+01
    1.944000000000e+05 4.000000000000e+00
16 21  1 19  8  0  0.0-2.672648988664e-04-5.570655048359e-12 0.000000000000e+00
    9.700000000000e+01 6.375000000000e+00 4.323037214709e-09 6.411343871007e-01
    4.619359970093e-07 1.207018620335e-02 6.055459380150e-06 5.153632684708e+03
    2.016000000000e+05-1.247972249985e-07 3.087080675976e+00 2.030283212662e-07
    9.756449220414e-01 2.706875000000e+02 6.425123081766e-01-8.158911279975e-09
   -2.614394614315e-10 1.000000000000e+00 2.141000000000e+03 0.000000000000e+00
    3.400000000000e+00 0.000000000000e+00-1.071020960808e-08 9.700000000000e+01
    1.944000000000e+05 4.000000000000e+00
12 21  1 19  8  0  0.0 1.091090962291e-05-5.229594535194e-12 0.000000000000e+00
    9.600000000000e+01-1.562500000000e-01 4.198389165475e-09 2.514077798277e+00
   -6.519258022308e-08 8.234388777055e-03 6.137415766716e-06 5.153569072723e+03
    2.016000000000e+05 5.960464477539e-08 3.068285500944e+00-9.872019290924e-08
    9.755055673910e-01 2.673125000000e+02 1.172115149244e+00-7.871042146213e-09
   -1.750072897561e-10 1.000000000000e+00 2.141000000000e+03 0.000000000000e+00
    2.400000000000e+00 0.000000000000e+00-1.257285475731e-08 9.600000000000e+01
    1.944000000000e+05 4.000000000000e+00
27 21  1 19  8  0  0.0-5.901930853724e-05-7.730704965070e-12 0.000000000000e+00
    1.060000000000e+02-5.187500000000e+00 4.151244344561e-09-2.672295266110e-01
   -1.862645149231e-07 8.880330366082e-03 9.026378393173e-06 5.153677509308e+03
    2.016000000000e+05 9.126961231232e-08-2.239722245559e+00 7.636845111847e-08
    9.769090895334e-01 2.148125000000e+02 5.663393004765e-01-8.027477233791e-09
   -1.200049986899e-10 1.000000000000e+00 2.141000000000e+03 0.000000000000e+00
    2.400000000000e+00 0.000000000000e+00 1.862645149231e-09 1.060000000000e+02
    1.944000000000e+05 4.000000000000e+00
24 21  1 19  8  0  0.0 3.482215106487e-06-4.547473508865e-13 0.000000000000e+00
    5.300000000000e+01 4.603125000000e+01 5.050924677001e-09-2.129715162568e+00
    2.339482307434e-06 1.084277348127e-02 7.618218660355e-06 5.153618175507e+03
    2.016000000000e+05 9.313225746155e-09 1.883071253019e+00-1.061707735062e-07
    9.350986157993e-01 2.193437500000e+02 7.233293478564e-01-8.166054434659e-09
    2.478674675321e-10 1.000000000000e+00 2.141000000000e+03 0.000000000000e+00
    2.400000000000e+00 0.000000000000e+00 2.793967723846e-09 5.300000000000e+01
    1.944000000000e+05 4.000000000000e+00
